[{"OBJECT_NAME":"STARLINK-32841","OBJECT_ID":"2025-022M","EPOCH":"2026-03-09T10:51:21.439008","MEAN_MOTION":15.30186569,"ECCENTRICITY":0.00013464,"INCLINATION":53.1577,"RA_OF_ASC_NODE":130.728,"ARG_OF_PERICENTER":81.5163,"MEAN_ANOMALY":278.5991,"EPHEMERIS_TYPE":0,"CLASSIFICATION_TYPE":"U","NORAD_CAT_ID":62865,"ELEMENT_SET_NO":999,"REV_AT_EPOCH":6185,"BSTAR":0.0011668282,"MEAN_MOTION_DOT":0.00034344,"MEAN_MOTION_DDOT":0},{"OBJECT_NAME":"SL-3 R\/B","OBJECT_ID":"1981-065B","EPOCH":"2026-03-09T21:58:16.284000","MEAN_MOTION":15.33300883,"ECCENTRICITY":0.00117648,"INCLINATION":97.6337,"RA_OF_ASC_NODE":111.1786,"ARG_OF_PERICENTER":10.529,"MEAN_ANOMALY":349.6196,"EPHEMERIS_TYPE":0,"CLASSIFICATION_TYPE":"U","NORAD_CAT_ID":12586,"ELEMENT_SET_NO":999,"REV_AT_EPOCH":43499,"BSTAR":0.00030084921,"MEAN_MOTION_DOT":9.62e-5,"MEAN_MOTION_DDOT":0}]
